ORBCOMM FM115           
1 41186U 15081H   25137.85382024  .00000732  00000+0  17745-3 0  9993
2 41186  46.9973 183.8177 0001803 273.6240  86.4440 14.62454095503331
ORBCOMM FM108           
1 41187U 15081J   25137.74712060  .00001111  00000+0  27546-3 0  9991
2 41187  47.0048 250.7218 0002990 192.6859 167.3952 14.58110254502350
ORBCOMM FM117           
1 41188U 15081K   25137.64480635  .00001109  00000+0  27512-3 0  9991
2 41188  47.0011 249.9770 0003501 196.6136 163.4635 14.58112022502388
ORBCOMM FM116           
1 41189U 15081L   25137.90787981  .00001083  00000+0  26939-3 0  9998
2 41189  47.0034 338.5826 0002086   4.5905 355.4999 14.58124094501230
